GLOBALSTAR M075 [+]     
1 37192U 10054E   24065.54252244 -.00000103  00000+0  21987-5 0  9993
2 37192  51.9938 168.4589 0000608 105.9573 267.3857 12.62271214617194
GLOBALSTAR M073 [+]     
1 37193U 10054F   24065.81487685 -.00000093  00000+0  62026-4 0  9999
2 37193  52.0053  81.0875 0000439  93.5454  79.6370 12.62262335618734
GLOBALSTAR M083 [+]     
1 37739U 11033A   24065.66950110 -.00000095  00000+0  48810-4 0  9991
2 37739  51.9876  30.9016 0000163  69.3930 102.5931 12.62266089588044
GLOBALSTAR M088 [+]     
1 37740U 11033B   24065.86060062 -.00000066  00000+0  21223-3 0  9999
2 37740  51.9735 296.2092 0000621  67.4673  13.8782 12.62265621583542
GLOBALSTAR M091 [+]     
1 37741U 11033C   24065.77958058 -.00000070  00000+0  19002-3 0  9998
2 37741  51.9976 259.1715 0000613  73.1771 299.8531 12.62272070584291
GLOBALSTAR M085 [+]     
1 37742U 11033D   24065.79613692 -.00000095  00000+0  46245-4 0  9990
2 37742  51.9849 210.5732 0000588  95.1703  52.4405 12.62268292585038
GLOBALSTAR M081 [+]     
1 37743U 11033E   24065.82241602 -.00000092  00000+0  62942-4 0  9992
2 37743  51.9940 212.9905 0000692  78.3184  69.2981 12.62270384585075
GLOBALSTAR M089 [+]     
1 37744U 11033F   24065.78948368 -.00000115  00000+0 -64867-4 0  9996
2 37744  51.9923 167.4089 0001052  95.4270  81.4263 12.62271990585782
